[{"OBJECT_NAME":"STARLINK-32022","OBJECT_ID":"2024-120Q","EPOCH":"2026-03-09T22:20:47.031360","MEAN_MOTION":15.30186576,"ECCENTRICITY":0.00010868,"INCLINATION":53.163,"RA_OF_ASC_NODE":318.7679,"ARG_OF_PERICENTER":80.0998,"MEAN_ANOMALY":280.0126,"EPHEMERIS_TYPE":0,"CLASSIFICATION_TYPE":"U","NORAD_CAT_ID":60149,"ELEMENT_SET_NO":999,"REV_AT_EPOCH":9649,"BSTAR":-3.5144895e-5,"MEAN_MOTION_DOT":-1.399e-5,"MEAN_MOTION_DDOT":0},{"OBJECT_NAME":"USA 121","OBJECT_ID":"1996-029C","EPOCH":"2026-03-09T12:20:41.273376","MEAN_MOTION":13.45884179,"ECCENTRICITY":0.08466392,"INCLINATION":63.3189,"RA_OF_ASC_NODE":92.3686,"ARG_OF_PERICENTER":47.9314,"MEAN_ANOMALY":319.0644,"EPHEMERIS_TYPE":0,"CLASSIFICATION_TYPE":"U","NORAD_CAT_ID":23908,"ELEMENT_SET_NO":999,"REV_AT_EPOCH":8995,"BSTAR":0.00032043182,"MEAN_MOTION_DOT":1.829e-5,"MEAN_MOTION_DDOT":0}]
